ONEWEB-0156             
1 48052U 21025L   25076.43348614 -.00000028  00000+0 -11051-3 0  9994
2 48052  87.8921  50.9878 0001732  83.1936 276.9390 13.13470179193618
ONEWEB-0161             
1 48053U 21025M   25076.63662225 -.00000162  00000+0 -47994-3 0  9998
2 48053  87.8927  50.9621 0001693  80.3445 279.7876 13.13465296193570
ONEWEB-0158             
1 48054U 21025N   25076.90070484  .00000192  00000+0  48977-3 0  9992
2 48054  87.8922  50.8920 0001807  88.2355 271.8981 13.13472129193732
ONEWEB-0157             
1 48055U 21025P   25076.92609145  .00000203  00000+0  52088-3 0  9998
2 48055  87.8922  50.8992 0001486  73.4227 286.7065 13.13468843193678
ONEWEB-0162             
1 48056U 21025Q   25076.43263822  .00000022  00000+0  25479-4 0  9997
2 48056  87.8917  50.9896 0001830  84.9642 275.1695 13.13466939193583
ONEWEB-0155             
1 48057U 21025R   25076.90919361  .00000333  00000+0  87656-3 0  9995
2 48057  87.8921  50.9089 0001898  77.7783 282.3559 13.13470903193780
ONEWEB-0149             
1 48058U 21025S   25076.93117609  .00000042  00000+0  79984-4 0  9997
2 48058  87.8921  50.8998 0001752  91.3198 268.8132 13.13467677193599
ONEWEB-0148             
1 48059U 21025T   25076.89394405  .00000066  00000+0  14533-3 0  9998
2 48059  87.8925  50.9265 0001296  99.8874 260.2401 13.13472659193714
ONEWEB-0160             
1 48060U 21025U   25076.91088895  .00000360  00000+0  94943-3 0  9996
2 48060  87.8925  50.9201 0002692  92.0115 268.1323 13.13470249193667
ONEWEB-0163             
1 48061U 21025V   25076.89562615  .00000141  00000+0  34995-3 0  9999
2 48061  87.8923  50.9072 0001648  77.1119 283.0194 13.13471195193786
ONEWEB-0159             
1 48062U 21025W   25076.65865893  .00000098  00000+0  23471-3 0  9996
2 48062  87.8920  50.9365 0001619  83.6023 276.5290 13.13469472193670
ONEWEB-0164             
1 48063U 21025X   25076.48766102 -.00000236  00000+0 -68070-3 0  9991
2 48063  87.8921  50.9808 0001974  81.2243 278.9110 13.13469383193630
ONEWEB-0167             
1 48064U 21025Y   25076.89646029  .00000125  00000+0  30766-3 0  9998
2 48064  87.8932  50.9190 0001895  57.5141 302.6171 13.13447142193677
ONEWEB-0166             
1 48065U 21025Z   25076.91933006  .00000337  00000+0  88762-3 0  9990
2 48065  87.8919  50.8833 0001694  87.8975 272.2348 13.13469866193758
ONEWEB-0151             
1 48066U 21025AA  25076.92101382  .00000295  00000+0  77292-3 0  9995
2 48066  87.8920  50.9031 0001921  79.0755 281.0590 13.13470180193695
ONEWEB-0170             
1 48067U 21025AB  25076.92947424  .00000135  00000+0  33339-3 0  9998
2 48067  87.8923  50.9060 0002394  79.5806 280.5593 13.13468756193657
ONEWEB-0168             
1 48068U 21025AC  25076.91424811  .00000391  00000+0  10344-2 0  9992
2 48068  87.8925  50.8864 0001841  82.2146 277.9192 13.13471895193669
ONEWEB-0173             
1 48069U 21025AD  25076.90578710  .00000310  00000+0  81443-3 0  9990
2 48069  87.8925  50.8968 0001713  69.5654 290.5658 13.13469792193903
ONEWEB-0171             
1 48070U 21025AE  25076.48595426 -.00000497  00000+0 -13962-2 0  9996
2 48070  87.8925  51.0175 0001967  80.7487 279.3864 13.13469581193661
ONEWEB-0172             
1 48071U 21025AF  25076.92270742  .00000278  00000+0  72747-3 0  9999
2 48071  87.8925  50.8971 0001890  77.4121 282.7220 13.13469638194619
ONEWEB-0174             
1 48072U 21025AG  25076.90410200  .00000276  00000+0  72158-3 0  9997
2 48072  87.8925  50.9145 0001764  84.8144 275.3187 13.13471600193937
ONEWEB-0175             
1 48073U 21025AH  25076.93457780 -.00000001  00000+0 -38063-4 0  9991
2 48073  87.8921  50.8814 0002155  78.1568 281.9803 13.13466526193598
ONEWEB-0177             
1 48074U 21025AJ  25076.64168925 -.00000606  00000+0 -16934-2 0  9992
2 48074  87.8922  50.9513 0001633  79.4579 280.6734 13.13469517193742
ONEWEB-0178             
1 48075U 21025AK  25076.88898947 -.00000068  00000+0 -22162-3 0  9996
2 48075  87.8925  50.9396 0001746  77.8405 282.2919 13.13473517193827
ONEWEB-0108             
1 48076U 21025AL  25076.92438446  .00000273  00000+0  71293-3 0  9991
2 48076  87.8920  50.8911 0001898  90.7126 269.4221 13.13469476193751
ONEWEB-0169             
1 48077U 21025AM  25076.42331835 -.00000216  00000+0 -62609-3 0  9991
2 48077  87.8923  51.0080 0001917  91.2912 268.8437 13.13467627192348
ONEWEB-0176             
1 48210U 21031A   25076.77674516 -.00000082  00000+0 -25527-3 0  9990
2 48210  87.9079  20.4518 0001909  79.3017 280.8327 13.14505240188353
ONEWEB-0184             
1 48211U 21031B   25076.90203636  .00000335  00000+0  86810-3 0  9998
2 48211  87.9074  20.4009 0002431  60.9472 299.1901 13.14504615188341
ONEWEB-0179             
1 48212U 21031C   25076.91667824  .00139880  00000+0  37332+0 0  9992
2 48212  87.9087  20.4120 0001691  79.2612 129.3648 13.14180304188387
ONEWEB-0180             
1 48213U 21031D   25076.90521110  .00000333  00000+0  86365-3 0  9993
2 48213  87.9076  20.4042 0001826  71.4888 288.6440 13.14502674188273
ONEWEB-0218             
1 48214U 21031E   25076.54681731 -.00000032  00000+0 -11957-3 0  9993
2 48214  87.9075  20.4763 0002284  53.4883 306.6457 13.14501777188381
ONEWEB-0209             
1 48215U 21031F   25076.91628964  .00000251  00000+0  64263-3 0  9993
2 48215  87.9077  20.4436 0001659  77.7114 282.4201 13.14505880188435
ONEWEB-0198             
1 48216U 21031G   25076.90043581  .00000248  00000+0  63577-3 0  9992
2 48216  87.9076  20.4493 0001826  67.5013 292.6310 13.14501002188547
ONEWEB-0189             
1 48217U 21031H   25076.91311742  .00001833  00000+0  49091-2 0  9996
2 48217  87.9077  20.4211 0001401  65.1775 294.9500 13.14497467188281
ONEWEB-0196             
1 48218U 21031J   25076.89093697  .00000844  00000+0  22417-2 0  9994
2 48218  87.9092  20.4352 0001672  74.2191 285.9123 13.14496948188282
ONEWEB-0183             
1 48219U 21031K   25076.78943899 -.00000162  00000+0 -47268-3 0  9998
2 48219  87.9076  20.4681 0001745  83.0559 277.0769 13.14502045188360
ONEWEB-0185             
1 48220U 21031L   25076.89172110  .00000251  00000+0  64338-3 0  9996
2 48220  87.9075  20.4182 0001602  77.4428 282.6881 13.14501557188309
ONEWEB-0187             
1 48221U 21031M   25076.78660839 -.00051205  00000+0 -14022+0 0  9993
2 48221  87.9065  20.4743 0001698  83.4917 276.6406 13.13865991188307
ONEWEB-0192             
1 48222U 21031N   25076.91788805  .00000186  00000+0  46663-3 0  9993
2 48222  87.9078  20.4470 0001863  75.9026 284.2311 13.14501763188237
ONEWEB-0219             
1 48223U 21031P   25076.89728061  .00000308  00000+0  79679-3 0  9998
2 48223  87.9076  20.4242 0001668  77.3321 282.7995 13.14504441188439
ONEWEB-0202             
1 48224U 21031Q   25076.87825366 -.00000049  00000+0 -16753-3 0  9991
2 48224  87.9073  20.4438 0001962  56.3207 303.8110 13.14503928188412
ONEWEB-0204             
1 48225U 21031R   25076.76011297  .00000173  00000+0  43242-3 0  9999
2 48225  87.9075  20.4795 0001787  89.5707 270.5628 13.14501903188290
ONEWEB-0205             
1 48226U 21031S   25076.88774726  .00000079  00000+0  17821-3 0  9995
2 48226  87.9075  20.4255 0001656  78.3596 281.7720 13.14505447188327
ONEWEB-0206             
1 48227U 21031T   25076.40408176 -.00000208  00000+0 -59627-3 0  9993
2 48227  87.9074  20.5038 0001763  79.7006 280.4323 13.14505094188218
ONEWEB-0182             
1 48228U 21031U   25076.77991461 -.00000155  00000+0 -45176-3 0  9993
2 48228  87.9079  20.4682 0001855  84.3326 275.8016 13.14500573188479
ONEWEB-0186             
1 48229U 21031V   25076.79101839 -.00000156  00000+0 -45414-3 0  9994
2 48229  87.9077  20.4281 0001753  77.3696 282.7630 13.14505052188423
ONEWEB-0181             
1 48230U 21031W   25076.76881213  .00000077  00000+0  17230-3 0  9999
2 48230  87.9079  20.5038 0001824  74.5028 285.6303 13.14504894188270
ONEWEB-0188             
1 48231U 21031X   25076.88299216  .00000040  00000+0  73418-4 0  9990
2 48231  87.9074  20.4736 0001787  79.8061 280.3270 13.14505521188197
ONEWEB-0220             
1 48232U 21031Y   25076.77041643  .00000023  00000+0  27292-4 0  9998
2 48232  87.9071  20.4445 0001538  77.8133 282.3169 13.14503848188441
ONEWEB-0165             
1 48233U 21031Z   25076.79894714 -.00000091  00000+0 -27948-3 0  9990
2 48233  87.9074  20.4736 0001748  75.2801 284.8523 13.14505166188407
ONEWEB-0199             
1 48234U 21031AA  25076.55473664 -.00000105  00000+0 -31755-3 0  9999
2 48234  87.9076  20.4873 0002022  81.9485 278.1874 13.14505245188278
ONEWEB-0203             
1 48235U 21031AB  25076.54521973  .00000045  00000+0  86081-4 0  9990
2 48235  87.9075  20.4916 0002254  76.2536 283.8844 13.14505237188289
ONEWEB-0197             
1 48236U 21031AC  25076.90125008  .00000322  00000+0  83284-3 0  9999
2 48236  87.9077  20.4321 0001724  89.8088 270.3239 13.14502616188248
ONEWEB-0194             
1 48237U 21031AD  25076.87982079  .00000008  00000+0 -13059-4 0  9991
2 48237  87.9075  20.4315 0002131  80.6251 279.5119 13.14505457188417
ONEWEB-0193             
1 48238U 21031AE  25076.89569571  .00000236  00000+0  60164-3 0  9992
2 48238  87.9077  20.4363 0001935  75.8463 284.2881 13.14503033188366
ONEWEB-0191             
1 48239U 21031AF  25076.90678671  .00000337  00000+0  87578-3 0  9997
2 48239  87.9075  20.4095 0001877  76.0400 284.0938 13.14504724188220
ONEWEB-0195             
1 48240U 21031AG  25076.88378089  .00000078  00000+0  17602-3 0  9999
2 48240  87.9074  20.4122 0001717  66.2546 293.8763 13.14506117188207
ONEWEB-0201             
1 48241U 21031AH  25076.79624865  .00001919  00000+0  51294-2 0  9995
2 48241  87.9076  20.4730 0001788  78.5849 281.5482 13.14653324188424
ONEWEB-0207             
1 48242U 21031AJ  25076.77594544 -.00000022  00000+0 -94576-4 0  9992
2 48242  87.9077  20.4394 0001687  83.8365 276.2957 13.14504378188334
